start=new Date('2022-05-20T00:00:00.000Z').valueOf();
sats=[{"COUNTRY_CODE":"US","OBJECT_TYPE":"PAYLOAD","MEAN_MOTION_DDOT":"0.0000000000000","LAUNCH_DATE":"2020-02-17","APOAPSIS":"548.607","ECCENTRICITY":"0.00020100","GP_ID":"203994743","INCLINATION":"53.0555","EPOCH":"2022-05-20T02:19:07.457376","FILE":"3453974","MEAN_MOTION":"15.06399440","SEMIMAJOR_AXIS":"6925.350","MEAN_ELEMENT_THEORY":"SGP4","RCS_SIZE":"LARGE","ELEMENT_SET_NO":"999","TIME_SYSTEM":"UTC","CENTER_NAME":"EARTH","MEAN_MOTION_DOT":"0.00001292","PERIOD":"95.592","MEAN_ANOMALY":"309.9564","EPHEMERIS_TYPE":"0","TLE_LINE2":"2 45227  53.0555 124.7326 0002010  50.1602 309.9564 15.06399440124988","TLE_LINE1":"1 45227U 20012BB  22140.09661409  .00001292  00000-0  10565-3 0  9993","NORAD_CAT_ID":"45227","SITE":"AFETR","OBJECT_ID":"2020-012BB","PERIAPSIS":"545.823","CLASSIFICATION_TYPE":"U","REF_FRAME":"TEME","RA_OF_ASC_NODE":"124.7326","DECAY_DATE":null,"REV_AT_EPOCH":"12498","OBJECT_NAME":"STARLINK-1221","BSTAR":"0.00010565000000","ARG_OF_PERICENTER":"50.1602"},{"LAUNCH_DATE":"2020-02-17","APOAPSIS":"548.734","COUNTRY_CODE":"US","OBJECT_TYPE":"PAYLOAD","MEAN_MOTION_DDOT":"0.0000000000000","RCS_SIZE":"LARGE","ELEMENT_SET_NO":"999","TIME_SYSTEM":"UTC","CENTER_NAME":"EARTH","ECCENTRICITY":"0.00022270","GP_ID":"203986306","INCLINATION":"53.0542","EPOCH":"2022-05-19T16:51:11.399328","FILE":"3453812","MEAN_MOTION":"15.06407227","MEAN_ELEMENT_THEORY":"SGP4","SEMIMAJOR_AXIS":"6925.326","EPHEMERIS_TYPE":"0","TLE_LINE2":"2 45228  53.0542 126.5101 0002227  48.1274 311.9905 15.06407227125782","TLE_LINE1":"1 45228U 20012BC  22139.70221527  .00001522  00000-0  12105-3 0  9991","SITE":"AFETR","NORAD_CAT_ID":"45228","OBJECT_ID":"2020-012BC","MEAN_MOTION_DOT":"0.00001522","PERIOD":"95.592","MEAN_ANOMALY":"311.9905","REV_AT_EPOCH":"12578","OBJECT_NAME":"STARLINK-1222","BSTAR":"0.00012105000000","ARG_OF_PERICENTER":"48.1274","PERIAPSIS":"545.649","CLASSIFICATION_TYPE":"U","REF_FRAME":"TEME","RA_OF_ASC_NODE":"126.5101","DECAY_DATE":null},{"LAUNCH_DATE":"2020-02-17","APOAPSIS":"548.640","COUNTRY_CODE":"US","OBJECT_TYPE":"PAYLOAD","MEAN_MOTION_DDOT":"0.0000000000000","RCS_SIZE":"LARGE","ELEMENT_SET_NO":"999","TIME_SYSTEM":"UTC","CENTER_NAME":"EARTH","ECCENTRICITY":"0.00020330","GP_ID":"203994766","INCLINATION":"53.0564","EPOCH":"2022-05-20T03:06:54.086688","FILE":"3453976","MEAN_MOTION":"15.06393861","MEAN_ELEMENT_THEORY":"SGP4","SEMIMAJOR_AXIS":"6925.367","EPHEMERIS_TYPE":"0","TLE_LINE2":"2 45229  53.0564 124.6086 0002033  60.7619 299.3573 15.06393861125021","TLE_LINE1":"1 45229U 20012BD  22140.12979267  .00000936  00000-0  81725-4 0  9994","NORAD_CAT_ID":"45229","SITE":"AFETR","OBJECT_ID":"2020-012BD","MEAN_MOTION_DOT":"0.00000936","PERIOD":"95.593","MEAN_ANOMALY":"299.3573","REV_AT_EPOCH":"12502","OBJECT_NAME":"STARLINK-1226","ARG_OF_PERICENTER":"60.7619","BSTAR":"0.00008172500000","CLASSIFICATION_TYPE":"U","PERIAPSIS":"545.824","REF_FRAME":"TEME","RA_OF_ASC_NODE":"124.6086","DECAY_DATE":null},{"OBJECT_NAME":"STARLINK-1227","REV_AT_EPOCH":"12590","ARG_OF_PERICENTER":"52.6589","BSTAR":"0.00002411700000","REF_FRAME":"TEME","CLASSIFICATION_TYPE":"U","PERIAPSIS":"545.833","DECAY_DATE":null,"RA_OF_ASC_NODE":"126.6909","EPHEMERIS_TYPE":"0","OBJECT_ID":"2020-012BE","SITE":"AFETR","NORAD_CAT_ID":"45230","TLE_LINE1":"1 45230U 20012BE  22139.66168366  .00000077  00000-0  24117-4 0  9991","TLE_LINE2":"2 45230  53.0545 126.6909 0002037  52.6589 307.4585 15.06390105125907","MEAN_MOTION_DOT":"0.00000077","MEAN_ANOMALY":"307.4585","PERIOD":"95.593","ELEMENT_SET_NO":"999","RCS_SIZE":"LARGE","CENTER_NAME":"EARTH","TIME_SYSTEM":"UTC","GP_ID":"203984805","ECCENTRICITY":"0.00020370","SEMIMAJOR_AXIS":"6925.379","MEAN_ELEMENT_THEORY":"SGP4","MEAN_MOTION":"15.06390105","FILE":"3453812","EPOCH":"2022-05-19T15:52:49.468224","INCLINATION":"53.0545","LAUNCH_DATE":"2020-02-17","APOAPSIS":"548.655","OBJECT_TYPE":"PAYLOAD","COUNTRY_CODE":"US","MEAN_MOTION_DDOT":"0.0000000000000"},{"EPHEMERIS_TYPE":"0","OBJECT_ID":"2020-012BF","TLE_LINE2":"2 45231  53.0249 325.3888 0009548 278.2429  81.7507 15.76729215128023","TLE_LINE1":"1 45231U 20012BF  22139.80824147 -.00000025  00000-0  39347-5 0  9990","NORAD_CAT_ID":"45231","SITE":"AFETR","MEAN_MOTION_DOT":"-0.00000025","MEAN_ANOMALY":"81.7507","PERIOD":"91.328","OBJECT_NAME":"STARLINK-1229","REV_AT_EPOCH":"12802","BSTAR":"0.00000393470000","ARG_OF_PERICENTER":"278.2429","PERIAPSIS":"333.303","CLASSIFICATION_TYPE":"U","REF_FRAME":"TEME","DECAY_DATE":null,"RA_OF_ASC_NODE":"325.3888","LAUNCH_DATE":"2020-02-17","APOAPSIS":"346.131","OBJECT_TYPE":"PAYLOAD","COUNTRY_CODE":"US","MEAN_MOTION_DDOT":"0.0000000000000","ELEMENT_SET_NO":"999","RCS_SIZE":"LARGE","TIME_SYSTEM":"UTC","CENTER_NAME":"EARTH","ECCENTRICITY":"0.00095480","GP_ID":"203986056","MEAN_MOTION":"15.76729215","SEMIMAJOR_AXIS":"6717.852","MEAN_ELEMENT_THEORY":"SGP4","INCLINATION":"53.0249","EPOCH":"2022-05-19T19:23:52.063008","FILE":"3453812"},{"DECAY_DATE":null,"RA_OF_ASC_NODE":"126.6418","CLASSIFICATION_TYPE":"U","PERIAPSIS":"545.788","REF_FRAME":"TEME","ARG_OF_PERICENTER":"47.5344","BSTAR":"0.00001495600000","OBJECT_NAME":"STARLINK-1235","REV_AT_EPOCH":"12589","MEAN_ANOMALY":"312.5820","PERIOD":"95.592","MEAN_MOTION_DOT":"-0.00000059","OBJECT_ID":"2020-012BG","TLE_LINE1":"1 45232U 20012BG  22139.67273456 -.00000059  00000-0  14956-4 0  9992","TLE_LINE2":"2 45232  53.0535 126.6418 0002077  47.5344 312.5820 15.06395776125895","SITE":"AFETR","NORAD_CAT_ID":"45232","EPHEMERIS_TYPE":"0","MEAN_MOTION":"15.06395776","SEMIMAJOR_AXIS":"6925.362","MEAN_ELEMENT_THEORY":"SGP4","EPOCH":"2022-05-19T16:08:44.265984","INCLINATION":"53.0535","FILE":"3453812","ECCENTRICITY":"0.00020770","GP_ID":"203985807","TIME_SYSTEM":"UTC","CENTER_NAME":"EARTH","ELEMENT_SET_NO":"999","RCS_SIZE":"LARGE","MEAN_MOTION_DDOT":"0.0000000000000","OBJECT_TYPE":"PAYLOAD","COUNTRY_CODE":"US","LAUNCH_DATE":"2020-02-17","APOAPSIS":"548.665"},{"COUNTRY_CODE":"US","OBJECT_TYPE":"PAYLOAD","MEAN_MOTION_DDOT":"0.0000000000000","APOAPSIS":"548.644","LAUNCH_DATE":"2020-02-17","GP_ID":"203985055","ECCENTRICITY":"0.00020820","FILE":"3453812","INCLINATION":"53.0534","EPOCH":"2022-05-19T17:15:04.865184","SEMIMAJOR_AXIS":"6925.337","MEAN_ELEMENT_THEORY":"SGP4","MEAN_MOTION":"15.06403835","RCS_SIZE":"LARGE","ELEMENT_SET_NO":"999","CENTER_NAME":"EARTH","TIME_SYSTEM":"UTC","MEAN_MOTION_DOT":"0.00001023","PERIOD":"95.592","MEAN_ANOMALY":"305.1322","EPHEMERIS_TYPE":"0","SITE":"AFETR","NORAD_CAT_ID":"45233","TLE_LINE2":"2 45233  53.0534 146.4453 0002082  54.9862 305.1322 15.06403835125607","TLE_LINE1":"1 45233U 20012BH  22139.71880631  .00001023  00000-0  87561-4 0  9990","OBJECT_ID":"2020-012BH","REF_FRAME":"TEME","CLASSIFICATION_TYPE":"U","PERIAPSIS":"545.760","RA_OF_ASC_NODE":"146.4453","DECAY_DATE":null,"REV_AT_EPOCH":"12560","OBJECT_NAME":"STARLINK-1238","BSTAR":"0.00008756100000","ARG_OF_PERICENTER":"54.9862"},{"LAUNCH_DATE":"2020-02-17","APOAPSIS":"548.645","MEAN_MOTION_DDOT":"0.0000000000000","COUNTRY_CODE":"US","OBJECT_TYPE":"PAYLOAD","TIME_SYSTEM":"UTC","CENTER_NAME":"EARTH","RCS_SIZE":"LARGE","ELEMENT_SET_NO":"999","INCLINATION":"53.0537","EPOCH":"2022-05-19T11:48:39.949056","FILE":"3453038","MEAN_MOTION":"15.06390862","MEAN_ELEMENT_THEORY":"SGP4","SEMIMAJOR_AXIS":"6925.377","ECCENTRICITY":"0.00020260","GP_ID":"203942426","TLE_LINE1":"1 45234U 20012BJ  22139.49212904 -.00000807  00000-0 -35276-4 0  9995","TLE_LINE2":"2 45234  53.0537 167.4559 0002026  57.1332 302.9852 15.06390862125277","SITE":"AFETR","NORAD_CAT_ID":"45234","OBJECT_ID":"2020-012BJ","EPHEMERIS_TYPE":"0","PERIOD":"95.593","MEAN_ANOMALY":"302.9852","MEAN_MOTION_DOT":"-0.00000807","BSTAR":"-0.00003527600000","ARG_OF_PERICENTER":"57.1332","REV_AT_EPOCH":"12527","OBJECT_NAME":"STARLINK-1243","RA_OF_ASC_NODE":"167.4559","DECAY_DATE":null,"PERIAPSIS":"545.838","CLASSIFICATION_TYPE":"U","REF_FRAME":"TEME"},{"MEAN_MOTION_DOT":"0.00001394","MEAN_ANOMALY":"308.9061","PERIOD":"95.592","EPHEMERIS_TYPE":"0","OBJECT_ID":"2020-012BK","SITE":"AFETR","NORAD_CAT_ID":"45235","TLE_LINE2":"2 45235  53.0532 166.0310 0001869  51.2095 308.9061 15.06397843124440","TLE_LINE1":"1 45235U 20012BK  22139.80911724  .00001394  00000-0  11249-3 0  9990","REF_FRAME":"TEME","PERIAPSIS":"545.926","CLASSIFICATION_TYPE":"U","DECAY_DATE":null,"RA_OF_ASC_NODE":"166.0310","OBJECT_NAME":"STARLINK-1246","REV_AT_EPOCH":"12444","BSTAR":"0.00011249000000","ARG_OF_PERICENTER":"51.2095","OBJECT_TYPE":"PAYLOAD","COUNTRY_CODE":"US","MEAN_MOTION_DDOT":"0.0000000000000","APOAPSIS":"548.515","LAUNCH_DATE":"2020-02-17","GP_ID":"203956551","ECCENTRICITY":"0.00018690","SEMIMAJOR_AXIS":"6925.355","MEAN_ELEMENT_THEORY":"SGP4","MEAN_MOTION":"15.06397843","FILE":"3453413","INCLINATION":"53.0532","EPOCH":"2022-05-19T19:25:07.729536","ELEMENT_SET_NO":"999","RCS_SIZE":"LARGE","CENTER_NAME":"EARTH","TIME_SYSTEM":"UTC"},{"MEAN_MOTION_DDOT":"0.0000000000000","OBJECT_TYPE":"PAYLOAD","COUNTRY_CODE":"US","LAUNCH_DATE":"2020-02-17","APOAPSIS":"549.104","MEAN_MOTION":"15.06400672","SEMIMAJOR_AXIS":"6925.346","MEAN_ELEMENT_THEORY":"SGP4","EPOCH":"2022-05-19T09:25:20.735904","INCLINATION":"53.0545","FILE":"3453413","ECCENTRICITY":"0.00027320","GP_ID":"203956244","TIME_SYSTEM":"UTC","CENTER_NAME":"EARTH","ELEMENT_SET_NO":"999","RCS_SIZE":"LARGE","MEAN_ANOMALY":"320.3109","PERIOD":"95.592","MEAN_MOTION_DOT":"-0.00000005","OBJECT_ID":"2020-012BL","TLE_LINE2":"2 45236  53.0545 127.8936 0002732  39.8080 320.3109 15.06400672124918","TLE_LINE1":"1 45236U 20012BL  22139.39260111 -.00000005  00000-0  18584-4 0  9991","SITE":"AFETR","NORAD_CAT_ID":"45236","EPHEMERIS_TYPE":"0","DECAY_DATE":null,"RA_OF_ASC_NODE":"127.8936","CLASSIFICATION_TYPE":"U","PERIAPSIS":"545.319","REF_FRAME":"TEME","BSTAR":"0.00001858400000","ARG_OF_PERICENTER":"39.8080","OBJECT_NAME":"STARLINK-1247","REV_AT_EPOCH":"12491"}];
